{"type": "FeatureCollection", "features": [ {"type": "Feature", "properties": {"norad_id": 30071, "name": "FENGYUN 1C DEB", "group": "fengyun-1c-debris", "lat": -38.14186217664877, "lon": -86.87556871638272, "alt_km": 747.6826524522548, "timestamp": "2025-12-26T07:29:18.729241+00:00", "meta": {"OBJECT_NAME": "FENGYUN 1C DEB", "OBJECT_ID": "1999-025PY", "EPOCH": "2025-12-25T02:55:45.155424", "MEAN_MOTION": 14.52359913, "ECCENTRICITY": 0.00380821, "INCLINATION": 98.6582, "RA_OF_ASC_NODE": 98.7698, "ARG_OF_PERICENTER": 72.0624, "MEAN_ANOMALY": 48.089, "EPHEMERIS_TYPE": 0, "CLASSIFICATION_TYPE": "U", "NORAD_CAT_ID": 30071, "ELEMENT_SET_NO": 999, "REV_AT_EPOCH": 98406, "BSTAR": 0.0023789314, "MEAN_MOTION_DOT": 9.739e-05, "MEAN_MOTION_DDOT": 0}, "tle": {"line1": "1 30071U 99025PY  25359.12205041  .00009739  00000+0  23789-2 0  9993", "line2": "2 30071  98.6582  98.7698 0038082  72.0624  48.0890 14.52359913984068"}}, "geometry": {"type": "Point", "coordinates": [-86.87556871638272, -38.14186217664877]}}, {"type": "Feature", "properties": {"norad_id": 30072, "name": "FENGYUN 1C DEB", "group": "fengyun-1c-debris", "lat": -20.278433030797103, "lon": -34.046869754831, "alt_km": 734.0165928050837, "timestamp": "2025-12-26T07:29:18.729251+00:00", "meta": {"OBJECT_NAME": "FENGYUN 1C DEB", "OBJECT_ID": "1999-025PZ", "EPOCH": "2025-12-25T15:31:33.273696", "MEAN_MOTION": 14.3802109, "ECCENTRICITY": 0.0060164, "INCLINATION": 99.0768, "RA_OF_ASC_NODE": 148.6371, "ARG_OF_PERICENTER": 235.3662, "MEAN_ANOMALY": 124.1841, "EPHEMERIS_TYPE": 0, "CLASSIFICATION_TYPE": "U", "NORAD_CAT_ID": 30072, "ELEMENT_SET_NO": 999, "REV_AT_EPOCH": 97356, "BSTAR": 0.0036869, "MEAN_MOTION_DOT": 0.00011362, "MEAN_MOTION_DDOT": 0}, "tle": {"line1": "1 30072U 99025PZ  25359.64691289  .00011362  00000+0  36869-2 0  9992", "line2": "2 30072  99.0768 148.6371 0060164 235.3662 124.1841 14.38021090973566"}}, "geometry": {"type": "Point", "coordinates": [-34.046869754831, -20.278433030797103]}}, {"type": "Feature", "properties": {"norad_id": 30073, "name": "FENGYUN 1C DEB", "group": "fengyun-1c-debris", "lat": -71.68795688844983, "lon": 124.1848406284611, "alt_km": 799.5777102926786, "timestamp": "2025-12-26T07:29:18.729261+00:00", "meta": {"OBJECT_NAME": "FENGYUN 1C DEB", "OBJECT_ID": "1999-025QA", "EPOCH": "2025-12-24T22:26:59.088768", "MEAN_MOTION": 14.18735293, "ECCENTRICITY": 0.005284, "INCLINATION": 99.4127, "RA_OF_ASC_NODE": 332.806, "ARG_OF_PERICENTER": 246.1009, "MEAN_ANOMALY": 180.8201, "EPHEMERIS_TYPE": 0, "CLASSIFICATION_TYPE": "U", "NORAD_CAT_ID": 30073, "ELEMENT_SET_NO": 999, "REV_AT_EPOCH": 97098, "BSTAR": 0.0014517, "MEAN_MOTION_DOT": 3.008e-05, "MEAN_MOTION_DDOT": 0}, "tle": {"line1": "1 30073U 99025QA  25358.93540612  .00003008  00000+0  14517-2 0  9991", "line2": "2 30073  99.4127 332.8060 0052840 246.1009 180.8201 14.18735293970986"}}, "geometry": {"type": "Point", "coordinates": [124.1848406284611, -71.68795688844983]}}, {"type": "Feature", "properties": {"norad_id": 30074, "name": "FENGYUN 1C DEB", "group": "fengyun-1c-debris", "lat": 79.22697355497864, "lon": 9.13250263982348, "alt_km": 781.0561531764888, "timestamp": "2025-12-26T07:29:18.729271+00:00", "meta": {"OBJECT_NAME": "FENGYUN 1C DEB", "OBJECT_ID": "1999-025QB", "EPOCH": "2025-12-21T03:01:28.048512", "MEAN_MOTION": 14.12895962, "ECCENTRICITY": 0.00969654, "INCLINATION": 99.1289, "RA_OF_ASC_NODE": 61.526, "ARG_OF_PERICENTER": 128.6907, "MEAN_ANOMALY": 232.2986, "EPHEMERIS_TYPE": 0, "CLASSIFICATION_TYPE": "U", "NORAD_CAT_ID": 30074, "ELEMENT_SET_NO": 999, "REV_AT_EPOCH": 96780, "BSTAR": 0.0010443796, "MEAN_MOTION_DOT": 1.987e-05, "MEAN_MOTION_DDOT": 0}, "tle": {"line1": "1 30074U 99025QB  25355.12601908  .00001987  00000+0  10444-2 0  9995", "line2": "2 30074  99.1289  61.5260 0096965 128.6907 232.2986 14.12895962967801"}}, "geometry": {"type": "Point", "coordinates": [9.13250263982348, 79.22697355497864]}}, {"type": "Feature", "properties": {"norad_id": 30075, "name": "FENGYUN 1C DEB", "group": "fengyun-1c-debris", "lat": -80.2615614927188, "lon": 156.81860861646197, "alt_km": 966.5889894423663, "timestamp": "2025-12-26T07:29:18.729281+00:00", "meta": {"OBJECT_NAME": "FENGYUN 1C DEB", "OBJECT_ID": "1999-025QC", "EPOCH": "2025-12-25T02:45:57.176640", "MEAN_MOTION": 13.92537822, "ECCENTRICITY": 0.00914713, "INCLINATION": 99.3598, "RA_OF_ASC_NODE": 49.5557, "ARG_OF_PERICENTER": 143.8132, "MEAN_ANOMALY": 246.2777, "EPHEMERIS_TYPE": 0, "CLASSIFICATION_TYPE": "U", "NORAD_CAT_ID": 30075, "ELEMENT_SET_NO": 999, "REV_AT_EPOCH": 96237, "BSTAR": 1.7484245e-05, "MEAN_MOTION_DOT": -2.2e-07, "MEAN_MOTION_DDOT": 0}, "tle": {"line1": "1 30075U 99025QC  25359.11524510 -.00000022  00000+0  17484-4 0  9995", "line2": "2 30075  99.3598  49.5557 0091471 143.8132 246.2777 13.92537822962373"}}, "geometry": {"type": "Point", "coordinates": [156.81860861646197, -80.2615614927188]}}, {"type": "Feature", "properties": {"norad_id": 30076, "name": "FENGYUN 1C DEB", "group": "fengyun-1c-debris", "lat": -67.39167301527114, "lon": 143.6299095622313, "alt_km": 1111.0514654868157, "timestamp": "2025-12-26T07:29:18.729291+00:00", "meta": {"OBJECT_NAME": "FENGYUN 1C DEB", "OBJECT_ID": "1999-025QD", "EPOCH": "2025-12-25T20:09:52.837632", "MEAN_MOTION": 13.76299733, "ECCENTRICITY": 0.01757206, "INCLINATION": 99.2395, "RA_OF_ASC_NODE": 346.1808, "ARG_OF_PERICENTER": 59.4781, "MEAN_ANOMALY": 13.6344, "EPHEMERIS_TYPE": 0, "CLASSIFICATION_TYPE": "U", "NORAD_CAT_ID": 30076, "ELEMENT_SET_NO": 999, "REV_AT_EPOCH": 95074, "BSTAR": 0.0003334726, "MEAN_MOTION_DOT": 3.22e-06, "MEAN_MOTION_DDOT": 0}, "tle": {"line1": "1 30076U 99025QD  25359.84019488  .00000322  00000+0  33347-3 0  9996", "line2": "2 30076  99.2395 346.1808 0175720  59.4781  13.6344 13.76299733950747"}}, "geometry": {"type": "Point", "coordinates": [143.6299095622313, -67.39167301527114]}}, {"type": "Feature", "properties": {"norad_id": 30077, "name": "FENGYUN 1C DEB", "group": "fengyun-1c-debris", "lat": -54.35429743003117, "lon": -176.86993819841797, "alt_km": 861.6085454577778, "timestamp": "2025-12-26T07:29:18.729301+00:00", "meta": {"OBJECT_NAME": "FENGYUN 1C DEB", "OBJECT_ID": "1999-025QE", "EPOCH": "2025-12-25T22:10:19.363872", "MEAN_MOTION": 14.07080822, "ECCENTRICITY": 0.00207143, "INCLINATION": 98.7574, "RA_OF_ASC_NODE": 15.1663, "ARG_OF_PERICENTER": 225.3782, "MEAN_ANOMALY": 204.5483, "EPHEMERIS_TYPE": 0, "CLASSIFICATION_TYPE": "U", "NORAD_CAT_ID": 30077, "ELEMENT_SET_NO": 999, "REV_AT_EPOCH": 97298, "BSTAR": 0.00013343469, "MEAN_MOTION_DOT": 1.81e-06, "MEAN_MOTION_DDOT": 0}, "tle": {"line1": "1 30077U 99025QE  25359.92383523  .00000181  00000+0  13343-3 0  9997", "line2": "2 30077  98.7574  15.1663 0020714 225.3782 204.5483 14.07080822972987"}}, "geometry": {"type": "Point", "coordinates": [-176.86993819841797, -54.35429743003117]}}, {"type": "Feature", "properties": {"norad_id": 30078, "name": "FENGYUN 1C DEB", "group": "fengyun-1c-debris", "lat": -9.593514980203262, "lon": -106.28245196837686, "alt_km": 794.5084892638642, "timestamp": "2025-12-26T07:29:18.729311+00:00", "meta": {"OBJECT_NAME": "FENGYUN 1C DEB", "OBJECT_ID": "1999-025QF", "EPOCH": "2025-12-25T21:01:35.845248", "MEAN_MOTION": 14.23208476, "ECCENTRICITY": 0.00535458, "INCLINATION": 98.8315, "RA_OF_ASC_NODE": 74.7861, "ARG_OF_PERICENTER": 242.3923, "MEAN_ANOMALY": 235.5119, "EPHEMERIS_TYPE": 0, "CLASSIFICATION_TYPE": "U", "NORAD_CAT_ID": 30078, "ELEMENT_SET_NO": 999, "REV_AT_EPOCH": 97300, "BSTAR": 0.0013269858, "MEAN_MOTION_DOT": 3.001e-05, "MEAN_MOTION_DDOT": 0}, "tle": {"line1": "1 30078U 99025QF  25359.87610932  .00003001  00000+0  13270-2 0  9991", "line2": "2 30078  98.8315  74.7861 0053545 242.3923 235.5119 14.23208476973006"}}, "geometry": {"type": "Point", "coordinates": [-106.28245196837686, -9.593514980203262]}}, {"type": "Feature", "properties": {"norad_id": 30079, "name": "FENGYUN 1C DEB", "group": "fengyun-1c-debris", "lat": -79.62820935556046, "lon": 116.05081776769067, "alt_km": 838.3504301753292, "timestamp": "2025-12-26T07:29:18.729321+00:00", "meta": {"OBJECT_NAME": "FENGYUN 1C DEB", "OBJECT_ID": "1999-025QG", "EPOCH": "2025-12-25T15:22:38.571744", "MEAN_MOTION": 14.00800677, "ECCENTRICITY": 0.0085099, "INCLINATION": 99.0325, "RA_OF_ASC_NODE": 55.0343, "ARG_OF_PERICENTER": 262.6747, "MEAN_ANOMALY": 228.7841, "EPHEMERIS_TYPE": 0, "CLASSIFICATION_TYPE": "U", "NORAD_CAT_ID": 30079, "ELEMENT_SET_NO": 999, "REV_AT_EPOCH": 96718, "BSTAR": 0.0001489, "MEAN_MOTION_DOT": 1.84e-06, "MEAN_MOTION_DDOT": 0}, "tle": {"line1": "1 30079U 99025QG  25359.64072421  .00000184  00000+0  14890-3 0  9991", "line2": "2 30079  99.0325  55.0343 0085099 262.6747 228.7841 14.00800677967180"}}, "geometry": {"type": "Point", "coordinates": [116.05081776769067, -79.62820935556046]}}, {"type": "Feature", "properties": {"norad_id": 30080, "name": "FENGYUN 1C DEB", "group": "fengyun-1c-debris", "lat": 67.51813930834166, "lon": -177.88035579876757, "alt_km": 846.0901253177635, "timestamp": "2025-12-26T07:29:18.729332+00:00", "meta": {"OBJECT_NAME": "FENGYUN 1C DEB", "OBJECT_ID": "1999-025QH", "EPOCH": "2025-12-25T22:34:49.209312", "MEAN_MOTION": 14.10836198, "ECCENTRICITY": 0.01334212, "INCLINATION": 98.6998, "RA_OF_ASC_NODE": 340.0456, "ARG_OF_PERICENTER": 23.3254, "MEAN_ANOMALY": 1.7701, "EPHEMERIS_TYPE": 0, "CLASSIFICATION_TYPE": "U", "NORAD_CAT_ID": 30080, "ELEMENT_SET_NO": 999, "REV_AT_EPOCH": 97424, "BSTAR": 0.00030542389, "MEAN_MOTION_DOT": 5.52e-06, "MEAN_MOTION_DDOT": 0}, "tle": {"line1": "1 30080U 99025QH  25359.94084733  .00000552  00000+0  30542-3 0  9996", "line2": "2 30080  98.6998 340.0456 0133421  23.3254   1.7701 14.10836198974240"}}, "geometry": {"type": "Point", "coordinates": [-177.88035579876757, 67.51813930834166]}}]}